NUSAT-50 (NANCY ROMAN)  
1 60493U 24149AB  26068.80227738  .00012094  00000+0  42252-3 0  9994
2 60493  97.3817 150.7693 0002523 238.0469 122.0527 15.29713355 86930
STARLINK-32660          
1 62205U 24229P   26068.81106254  .00021105  00000+0  77438-3 0  9993
2 62205  42.9980 255.8344 0001694 268.9624  91.1033 15.27574209 70744
